KALAMSAT-V2 & PSLV R/B  
1 43948U 19006B   22091.44911363  .00016742  00000+0  36172-3 0  9990
2 43948  98.8241 259.0735 0004205 164.3083 195.8292 15.44621275179021
MICROSAT-R DEB          
1 44383U 19006DE  22091.17106230  .00389751  30611-4  31612-2 0  9995
2 44383  96.1545  59.5424 0395467 202.7196 155.6112 15.10187051149570